{
  "norad_id": 64614,
  "name": "STARLINK-34440",
  "history": [
    {
      "epoch": "2026-04-14T20:57:31.878432Z",
      "apogee_km": 475.7914720974004,
      "perigee_km": 474.64147938417136,
      "latitude_deg": -3.2878787847231335e-05,
      "longitude_deg": 9.81478676591476,
      "height_km": 476.0623413521126,
      "semi_major_axis_km": 6853.353475740786,
      "eccentricity": 8.39e-05,
      "inclination_deg": 53.157,
      "raan_deg": 167.2411,
      "arg_perigee_deg": 84.7638,
      "mean_anomaly_deg": 275.3458,
      "mean_motion_rev_day": 15.30199529
    },
    {
      "epoch": "2026-04-15T11:04:00.715296Z",
      "apogee_km": 476.0083315609463,
      "perigee_km": 474.43151120047423,
      "latitude_deg": -4.130451305507303e-05,
      "longitude_deg": 154.88453261024182,
      "height_km": 476.02208834465785,
      "semi_major_axis_km": 6853.3569213807095,
      "eccentricity": 0.00011504,
      "inclination_deg": 53.1577,
      "raan_deg": 164.5104,
      "arg_perigee_deg": 83.0176,
      "mean_anomaly_deg": 277.0955,
      "mean_motion_rev_day": 15.30198375
    },
    {
      "epoch": "2026-04-16T19:59:06.777312Z",
      "apogee_km": 475.7593614072748,
      "perigee_km": 474.4558742809613,
      "latitude_deg": -7.557714859199047e-06,
      "longitude_deg": 13.383693388778568,
      "height_km": 475.64286867505933,
      "semi_major_axis_km": 6853.244617844118,
      "eccentricity": 9.51e-05,
      "inclination_deg": 53.1571,
      "raan_deg": 158.1367,
      "arg_perigee_deg": 56.1349,
      "mean_anomaly_deg": 303.9742,
      "mean_motion_rev_day": 15.30235988
    },
    {
      "epoch": "2026-04-17T13:13:42.071232Z",
      "apogee_km": 475.8682564857445,
      "perigee_km": 474.57585003548047,
      "latitude_deg": 5.208975487799376e-05,
      "longitude_deg": 110.69513030714639,
      "height_km": 476.2234749908343,
      "semi_major_axis_km": 6853.359053260612,
      "eccentricity": 9.429e-05,
      "inclination_deg": 53.1561,
      "raan_deg": 154.8033,
      "arg_perigee_deg": 99.2003,
      "mean_anomaly_deg": 260.9105,
      "mean_motion_rev_day": 15.30197661
    },
    {
      "epoch": "2026-04-18T09:36:24.132384Z",
      "apogee_km": 475.97119477849265,
      "perigee_km": 474.5262269352161,
      "latitude_deg": -1.4606717279384448e-06,
      "longitude_deg": 160.2380270109518,
      "height_km": 476.2596321711545,
      "semi_major_axis_km": 6853.3857108568545,
      "eccentricity": 0.00010542,
      "inclination_deg": 53.1566,
      "raan_deg": 150.8584,
      "arg_perigee_deg": 98.9909,
      "mean_anomaly_deg": 261.1211,
      "mean_motion_rev_day": 15.30188733
    },
    {
      "epoch": "2026-04-19T09:07:12.394848Z",
      "apogee_km": 475.82692252815013,
      "perigee_km": 474.7239343319179,
      "latitude_deg": 1.1527072327991903e-05,
      "longitude_deg": 162.01978132495694,
      "height_km": 476.16583100804104,
      "semi_major_axis_km": 6853.412428430033,
      "eccentricity": 8.047e-05,
      "inclination_deg": 53.1558,
      "raan_deg": 146.3069,
      "arg_perigee_deg": 89.186,
      "mean_anomaly_deg": 270.9233,
      "mean_motion_rev_day": 15.30179785
    },
    {
      "epoch": "2026-04-20T08:38:00.512160Z",
      "apogee_km": 475.57572727148454,
      "perigee_km": 474.85886641203615,
      "latitude_deg": -3.2286651662306076e-05,
      "longitude_deg": 163.7995986771461,
      "height_km": 475.9846617523364,
      "semi_major_axis_km": 6853.3542968417605,
      "eccentricity": 5.23e-05,
      "inclination_deg": 53.1564,
      "raan_deg": 141.7529,
      "arg_perigee_deg": 68.5006,
      "mean_anomaly_deg": 291.605,
      "mean_motion_rev_day": 15.30199254
    },
    {
      "epoch": "2026-04-21T19:07:10.655040Z",
      "apogee_km": 476.03224176303684,
      "perigee_km": 474.3285070637585,
      "latitude_deg": -5.835468258620202e-06,
      "longitude_deg": -1.5817430020459362,
      "height_km": 476.2554082878174,
      "semi_major_axis_km": 6853.317374413397,
      "eccentricity": 0.0001243,
      "inclination_deg": 53.1581,
      "raan_deg": 135.0801,
      "arg_perigee_deg": 101.9982,
      "mean_anomaly_deg": 258.1158,
      "mean_motion_rev_day": 15.3021162
    },
    {
      "epoch": "2026-04-22T18:37:58.312704Z",
      "apogee_km": 476.3190962925355,
      "perigee_km": 473.9780139469067,
      "latitude_deg": -2.9188004667479903e-05,
      "longitude_deg": 0.20390919881972902,
      "height_km": 476.1708635867793,
      "semi_major_axis_km": 6853.285555119721,
      "eccentricity": 0.0001708,
      "inclination_deg": 53.1595,
      "raan_deg": 130.53,
      "arg_perigee_deg": 96.1241,
      "mean_anomaly_deg": 263.9954,
      "mean_motion_rev_day": 15.30222277
    },
    {
      "epoch": "2026-04-23T00:54:09.967968Z",
      "apogee_km": 475.3584645688534,
      "perigee_km": 474.8104809798906,
      "latitude_deg": -6.669140278662045e-05,
      "longitude_deg": -95.31437876877823,
      "height_km": 476.0330569293284,
      "semi_major_axis_km": 6853.221472774372,
      "eccentricity": 3.998e-05,
      "inclination_deg": 53.1607,
      "raan_deg": 129.3178,
      "arg_perigee_deg": 100.3572,
      "mean_anomaly_deg": 259.7473,
      "mean_motion_rev_day": 15.3024374
    },
    {
      "epoch": "2026-04-24T09:49:18.050016Z",
      "apogee_km": 475.47742428178935,
      "perigee_km": 474.9551987594514,
      "latitude_deg": -5.9638979981184676e-05,
      "longitude_deg": 123.17981754695305,
      "height_km": 476.2064205658142,
      "semi_major_axis_km": 6853.35331152062,
      "eccentricity": 3.81e-05,
      "inclination_deg": 53.1633,
      "raan_deg": 122.9476,
      "arg_perigee_deg": 110.2742,
      "mean_anomaly_deg": 249.8299,
      "mean_motion_rev_day": 15.30199584
    },
    {
      "epoch": "2026-04-25T09:20:06.506880Z",
      "apogee_km": 475.8029168205576,
      "perigee_km": 474.6268816346501,
      "latitude_deg": 1.0883132527769357e-05,
      "longitude_deg": 124.96090243004438,
      "height_km": 476.14718129423204,
      "semi_major_axis_km": 6853.351899227604,
      "eccentricity": 8.58e-05,
      "inclination_deg": 53.1584,
      "raan_deg": 118.3962,
      "arg_perigee_deg": 93.2978,
      "mean_anomaly_deg": 266.8121,
      "mean_motion_rev_day": 15.30200057
    },
    {
      "epoch": "2026-04-26T16:41:10.376736Z",
      "apogee_km": 475.9130948566035,
      "perigee_km": 474.49445331636707,
      "latitude_deg": -1.3542862572614022e-05,
      "longitude_deg": 7.337317283803976,
      "height_km": 476.06891076706455,
      "semi_major_axis_km": 6853.340774086485,
      "eccentricity": 0.0001035,
      "inclination_deg": 53.1586,
      "raan_deg": 112.3263,
      "arg_perigee_deg": 87.3244,
      "mean_anomaly_deg": 272.7875,
      "mean_motion_rev_day": 15.30203783
    },
    {
      "epoch": "2026-04-27T05:13:35.945760Z",
      "apogee_km": 475.8384210515851,
      "perigee_km": 474.5335483552981,
      "latitude_deg": -2.7485682968779907e-05,
      "longitude_deg": 176.29005224306655,
      "height_km": 476.1909587200495,
      "semi_major_axis_km": 6853.322984703441,
      "eccentricity": 9.52e-05,
      "inclination_deg": 53.1575,
      "raan_deg": 109.9006,
      "arg_perigee_deg": 99.4139,
      "mean_anomaly_deg": 260.6969,
      "mean_motion_rev_day": 15.30209741
    },
    {
      "epoch": "2026-04-28T15:42:46.409184Z",
      "apogee_km": 475.8027391799051,
      "perigee_km": 474.6253334718649,
      "latitude_deg": -4.860027292119537e-05,
      "longitude_deg": 10.905940471824637,
      "height_km": 475.9371309544729,
      "semi_major_axis_km": 6853.351036325885,
      "eccentricity": 8.59e-05,
      "inclination_deg": 53.1566,
      "raan_deg": 103.2264,
      "arg_perigee_deg": 72.6834,
      "mean_anomaly_deg": 287.426,
      "mean_motion_rev_day": 15.30200346
    },
    {
      "epoch": "2026-04-29T08:57:21.620160Z",
      "apogee_km": 475.9147578459924,
      "perigee_km": 474.5153033613424,
      "latitude_deg": 6.397347181131241e-05,
      "longitude_deg": 108.21456275842571,
      "height_km": 476.05152944015106,
      "semi_major_axis_km": 6853.352030603667,
      "eccentricity": 0.0001021,
      "inclination_deg": 53.1567,
      "raan_deg": 99.8898,
      "arg_perigee_deg": 84.9531,
      "mean_anomaly_deg": 275.1587,
      "mean_motion_rev_day": 15.30200013
    },
    {
      "epoch": "2026-04-30T08:28:09.314112Z",
      "apogee_km": 475.56795272957424,
      "perigee_km": 474.783659612036,
      "latitude_deg": -1.0871275052708762e-05,
      "longitude_deg": 110.00082738867337,
      "height_km": 476.05031954333316,
      "semi_major_axis_km": 6853.312806170805,
      "eccentricity": 5.722e-05,
      "inclination_deg": 53.1578,
      "raan_deg": 95.3405,
      "arg_perigee_deg": 86.4536,
      "mean_anomaly_deg": 273.653,
      "mean_motion_rev_day": 15.3021315
    },
    {
      "epoch": "2026-05-02T07:29:45.485664Z",
      "apogee_km": 476.0405485059473,
      "perigee_km": 474.4985320343876,
      "latitude_deg": -6.225059978065236e-05,
      "longitude_deg": 113.56275343400988,
      "height_km": 476.08088316558377,
      "semi_major_axis_km": 6853.406540270167,
      "eccentricity": 0.0001125,
      "inclination_deg": 53.1591,
      "raan_deg": 86.2345,
      "arg_perigee_deg": 83.5325,
      "mean_anomaly_deg": 276.5803,
      "mean_motion_rev_day": 15.30181757
    },
    {
      "epoch": "2026-05-03T03:52:26.943744Z",
      "apogee_km": 475.86091518735157,
      "perigee_km": 474.5029985692354,
      "latitude_deg": -1.269971722248578e-05,
      "longitude_deg": 163.11174410221005,
      "height_km": 476.0572458287002,
      "semi_major_axis_km": 6853.318956878293,
      "eccentricity": 9.907e-05,
      "inclination_deg": 53.1583,
      "raan_deg": 82.2931,
      "arg_perigee_deg": 88.0597,
      "mean_anomaly_deg": 272.0517,
      "mean_motion_rev_day": 15.3021109
    }
  ]
}